OBJECT_NAME,OBJECT_ID,EPOCH,MEAN_MOTION,ECCENTRICITY,INCLINATION,RA_OF_ASC_NODE,ARG_OF_PERICENTER,MEAN_ANOMALY,EPHEMERIS_TYPE,CLASSIFICATION_TYPE,NORAD_CAT_ID,ELEMENT_SET_NO,REV_AT_EPOCH,BSTAR,MEAN_MOTION_DOT,MEAN_MOTION_DDOT
KUIPER-00608,2026-118AA,2026-06-17T03:30:44.709120,15.35266108,.0008374,51.8616,53.6465,177.2252,182.8782,0,U,69291,999,397,.48903E-3,.16672E-3,0
KUIPER-00610,2026-118AB,2026-06-17T02:52:07.427424,15.38393631,.0002577,51.8724,53.4788,135.2156,224.9040,0,U,69292,999,397,.42391E-3,.15943E-3,0
KUIPER-00613,2026-118AC,2026-06-17T03:37:25.468608,15.35007174,.0009912,51.8639,53.6790,183.4824,176.6094,0,U,69293,999,397,.51479E-3,.17432E-3,0
KUIPER-00618,2026-118AD,2026-06-17T02:46:32.558304,15.38649371,.0001721,51.8725,53.4514,92.0297,268.0888,0,U,69294,999,397,.46236E-3,.17577E-3,0
KUIPER-00620,2026-118AE,2026-06-17T02:51:21.635424,15.38313479,.0002786,51.8719,53.4766,119.2161,240.9105,0,U,69295,999,397,.45581E-3,.1713E-3,0
STARLINK-37501,2026-119A,2026-06-17T04:00:01.998720,15.64807550,.0001365,97.2841,193.9606,61.9158,307.7504,0,U,69296,999,388,-.29497E-1,-.2501269E-1,0
STARLINK-37496,2026-119B,2026-06-17T04:00:01.998720,15.63600660,.0001126,97.2843,193.9608,162.9448,199.5071,0,U,69297,999,388,-.28609E-1,-.2334879E-1,0
STARLINK-37519,2026-119C,2026-06-17T04:00:01.998720,15.64716587,.0001299,97.2840,193.9690,47.1224,342.5177,0,U,69298,999,388,-.31616E-1,-.2647546E-1,0
STARLINK-37455,2026-119D,2026-06-17T04:00:01.998720,15.54547302,.0001788,97.2845,193.9110,90.0667,155.2746,0,U,69299,999,388,-.41996E-1,-.2415839E-1,0
STARLINK-37456,2026-119E,2026-06-17T04:00:01.998720,15.63127100,.0001333,97.2838,193.9697,50.9641,339.5642,0,U,69300,999,388,-.32778E-1,-.2586692E-1,0
STARLINK-37630,2026-119F,2026-06-17T04:00:01.998720,15.49183095,.0000993,97.2840,193.8346,70.9578,1.4778,0,U,69301,999,404,-.12611E-3,-.6941E-4,0
STARLINK-37804,2026-119G,2026-06-17T04:00:01.998720,15.49189406,.0001273,97.2842,193.8318,83.9349,341.4177,0,U,69302,999,404,.40219E-4,.2098E-4,0
STARLINK-37730,2026-119H,2026-06-17T04:00:01.998720,15.70118125,.0002056,97.2841,194.0065,73.4275,43.7176,0,U,69303,999,404,-.25071E-1,-.2623489E-1,0
STARLINK-37731,2026-119J,2026-06-17T04:00:01.998720,15.49188678,.0001285,97.2844,193.8294,60.2893,359.0757,0,U,69304,999,404,.17246E-3,.93E-4,0
STARLINK-37734,2026-119K,2026-06-17T04:00:01.998720,15.63303437,.0001245,97.2837,193.9680,55.8778,332.7719,0,U,69305,999,404,-.33183E-1,-.2629805E-1,0
STARLINK-37701,2026-119L,2026-06-17T04:00:01.998720,15.68927475,.0001776,97.2839,194.0027,68.2997,42.5276,0,U,69306,999,404,-.26474E-1,-.2634212E-1,0
STARLINK-37732,2026-119M,2026-06-17T04:00:01.998720,15.75039472,.0001831,97.2837,194.0216,77.3914,75.8201,0,U,69307,999,404,-.20507E-1,-.2645555E-1,0
STARLINK-37689,2026-119N,2026-06-17T04:00:01.998720,15.49212353,.0000793,97.2884,193.8356,44.6341,33.7273,0,U,69308,999,404,-.56079E-3,-.30496E-3,0
STARLINK-37619,2026-119P,2026-06-17T04:00:01.998720,15.72665036,.0001855,97.2838,194.0210,73.2021,79.2279,0,U,69309,999,404,-.22548E-1,-.2627387E-1,0
STARLINK-37794,2026-119Q,2026-06-17T04:00:01.998720,15.59376803,.0001429,97.2838,193.9752,67.3936,325.8732,0,U,69310,999,404,-.34198E-1,-.2364717E-1,0
STARLINK-37795,2026-119R,2026-06-17T04:00:01.998720,15.49202785,.0000868,97.2882,193.8469,57.7093,46.0973,0,U,69311,999,404,-.74983E-3,-.4068E-3,0
STARLINK-37790,2026-119S,2026-06-17T04:00:01.998720,15.67099420,.0001767,97.2841,194.0103,79.9141,48.0473,0,U,69312,999,404,-.28296E-1,-.2614713E-1,0
STARLINK-37676,2026-119T,2026-06-17T04:00:01.998720,15.76078109,.0001896,97.2837,194.0410,83.2249,115.4333,0,U,69313,999,404,-.19367E-1,-.2558689E-1,0
STARLINK-37617,2026-119U,2026-06-17T04:00:01.998720,15.65586777,.0001499,97.2843,194.0121,78.8780,52.5933,0,U,69314,999,404,-.11591E-1,-.1043656E-1,0
STARLINK-37627,2026-119V,2026-06-17T04:00:01.998720,15.67372551,.0001923,97.2845,194.0211,75.9756,77.1319,0,U,69315,999,404,-.28136E-1,-.2627263E-1,0
STARLINK-37738,2026-119W,2026-06-17T04:00:01.998720,15.66048919,.0001654,97.2844,194.0105,65.6362,59.8300,0,U,69316,999,404,-.28645E-1,-.2546669E-1,0
STARLINK-37799,2026-119X,2026-06-17T04:00:01.998720,15.77506674,.0001086,97.2837,194.0440,87.3315,117.1605,0,U,69317,999,399,-.58665E-2,-.875464E-2,0
STARLINK-37802,2026-119Y,2026-06-17T04:00:01.998720,15.73213315,.0001677,97.2843,194.0404,73.8589,123.6209,0,U,69318,999,404,-.22004E-1,-.2625149E-1,0
STARLINK-37803,2026-119Z,2026-06-17T04:00:01.998720,15.57715575,.0001107,97.2844,193.9737,66.0012,325.9798,0,U,69319,999,399,-.11057E-1,-.74642E-2,0
GUOWANG TEST OBJECT A,2026-120A,2026-06-07T11:06:12.288672,15.38803685,.00095994,54.9967,71.5399,294.3963,65.6063,0,U,69320,999,119,.24095813E-3,.9002E-4,0
GUOWANG TEST OBJECT B,2026-120B,2026-06-17T00:12:36.635040,15.38703032,.001011,54.9984,28.5393,330.2377,29.8075,0,U,69321,999,266,.22202E-3,.8236E-4,0
GUOWANG TEST OBJECT C,2026-120C,2026-06-07T21:56:00.773376,15.39284097,.00098504,54.9968,69.4792,309.3319,50.6835,0,U,69322,999,126,.41735581E-3,.16153E-3,0
GUOWANG TEST OBJECT D,2026-120D,2026-06-16T08:31:26.352768,15.39015221,.00111128,54.9990,31.4391,342.7076,17.3573,0,U,69323,999,256,.57263237E-4,.1852E-4,0
QIANFAN-163,2026-121A,2026-06-17T01:53:10.822272,13.59758160,.0020079,89.0146,300.5264,189.2688,170.8101,0,U,69325,999,214,-.12216E-5,.11E-6,0
QIANFAN-164,2026-121B,2026-06-11T09:53:52.001952,13.60355109,.0019383,89.0157,301.0998,205.3125,154.7084,0,U,69326,999,137,.13228E-3,.112E-5,0
SZ-22 MODULE,2025-272C,2026-06-16T20:32:16.971072,15.60203853,.0006297,41.4806,324.1231,83.9376,276.2180,0,U,69328,999,327,.22051E-3,.18201E-3,0
STARLINK-37733,2026-122A,2026-06-17T03:55:24.960576,15.80862357,.0000364,97.2826,197.6034,92.7970,267.3340,0,U,69329,999,215,.68983E-3,.13433E-2,0
STARLINK-37772,2026-122B,2026-06-17T03:47:51.720000,15.80871146,.0000767,97.2825,197.6105,86.6883,273.4473,0,U,69330,999,215,.8791E-3,.17204E-2,0
STARLINK-37768,2026-122C,2026-06-17T04:00:01.998720,15.75228053,.0001339,97.2836,197.6182,52.4162,354.2632,0,U,69331,999,329,-.19165E-1,-.2456116E-1,0
STARLINK-37833,2026-122D,2026-06-17T03:44:46.131072,15.80841383,.000086,97.2828,197.6136,19.9724,340.1578,0,U,69332,999,215,.56022E-3,.108636E-2,0
STARLINK-37818,2026-122E,2026-06-17T03:47:33.556128,15.80757514,.0000631,97.2822,197.6112,58.6073,301.5256,0,U,69333,999,215,-.42985E-3,-.81491E-3,0
STARLINK-37868,2026-122F,2026-06-17T04:00:01.998720,15.80825087,.0000828,97.2834,197.6393,74.7688,16.8339,0,U,69334,999,335,-.83554E-4,-.16122E-3,0
STARLINK-37877,2026-122G,2026-06-17T04:00:01.998720,15.72229072,.0001577,97.2837,197.6273,63.3663,4.2146,0,U,69335,999,335,-.22579E-1,-.258795E-1,0
STARLINK-37791,2026-122H,2026-06-17T04:00:01.998720,15.80426422,.0001236,97.2829,197.6430,75.1610,25.9062,0,U,69336,999,335,-.15881E-1,-.2554355E-1,0
STARLINK-37765,2026-122J,2026-06-17T03:33:54.514368,15.80876672,.0000528,97.2834,197.6244,101.0891,259.0437,0,U,69337,999,215,.89311E-3,.174887E-2,0
STARLINK-37788,2026-122K,2026-06-17T04:00:01.998720,15.71778332,.0001632,97.2835,197.6329,68.5187,11.4577,0,U,69338,999,335,-.23038E-1,-.2590102E-1,0
STARLINK-37743,2026-122L,2026-06-17T03:36:17.329248,15.80774145,.0000435,97.2831,197.6218,120.4420,239.6891,0,U,69339,999,215,-.38191E-4,-.7436E-4,0
STARLINK-37780,2026-122M,2026-06-17T03:34:52.257216,15.80846745,.0000873,97.2835,197.6232,81.5634,278.5734,0,U,69340,999,215,.837E-3,.16345E-2,0
STARLINK-37781,2026-122N,2026-06-17T04:00:01.998720,15.71982076,.0001608,97.2836,197.6247,62.7005,359.3281,0,U,69341,999,335,-.22551E-1,-.2561627E-1,0
STARLINK-37782,2026-122P,2026-06-17T04:00:01.998720,15.80931542,.0002609,97.2844,197.6640,124.7370,20.9470,0,U,69342,999,335,-.96908E-3,-.182949E-2,0
STARLINK-37776,2026-122Q,2026-06-17T04:00:01.998720,15.80816857,.0001378,97.2844,197.6654,91.0197,60.1419,0,U,69343,999,335,-.40329E-3,-.7672E-3,0
STARLINK-37786,2026-122R,2026-06-17T04:00:01.998720,15.77725745,.0001636,97.2846,197.6697,84.2095,76.9015,0,U,69344,999,335,-.18067E-1,-.2567223E-1,0
STARLINK-37785,2026-122S,2026-06-17T04:00:01.998720,15.80832901,.0001083,97.2844,197.6719,85.7159,81.5709,0,U,69345,999,335,-.12077E-3,-.23232E-3,0
STARLINK-37773,2026-122T,2026-06-17T04:00:01.998720,15.81287828,.0001756,97.2840,197.6689,76.4227,83.9573,0,U,69346,999,340,-.80301E-2,-.137424E-1,0
STARLINK-37744,2026-122U,2026-06-17T04:00:01.998720,15.69774157,.000168,97.2841,197.6540,77.8637,50.3049,0,U,69347,999,335,-.25247E-1,-.2606361E-1,0
STARLINK-37775,2026-122V,2026-06-17T04:00:01.998720,15.80806802,.000078,97.2842,197.6677,111.2644,47.0253,0,U,69348,999,335,-.6241E-3,-.118029E-2,0
STARLINK-37777,2026-122W,2026-06-17T03:19:49.010016,15.80820304,.0000676,97.2839,197.6387,69.5115,290.6226,0,U,69349,999,215,.97273E-3,.190341E-2,0
STARLINK-37779,2026-122X,2026-06-17T03:18:03.851712,15.80872510,.0000318,97.2842,197.6404,56.1488,303.9811,0,U,69350,999,215,.79283E-3,.154846E-2,0
STARLINK-37549,2026-122Y,2026-06-17T04:00:01.998720,15.76119096,.00019,97.2839,197.6610,96.0333,46.8708,0,U,69351,999,335,-.19445E-1,-.2571281E-1,0
STARLINK-37778,2026-122Z,2026-06-17T04:00:01.998720,15.78047270,.0001821,97.2838,197.6738,76.2813,94.2671,0,U,69352,999,335,-.17653E-1,-.2548894E-1,0
STARLINK-37651,2026-123A,2026-06-17T02:36:48.415680,15.80927141,.0000959,53.1582,242.2000,74.3257,285.7871,0,U,69353,999,202,.9051E-3,.182211E-2,0
STARLINK-37652,2026-123B,2026-06-17T00:00:02.000160,15.80804461,.0000984,53.1576,242.7589,99.2025,354.4899,0,U,69354,999,312,.55872E-3,.110646E-2,0
STARLINK-37593,2026-123C,2026-06-17T02:37:11.715168,15.80885527,.0001281,53.1581,242.2020,35.3521,324.7586,0,U,69355,999,202,.46811E-3,.92743E-3,0
STARLINK-37597,2026-123D,2026-06-17T04:05:53.079072,15.80907737,.0001169,53.1582,241.8736,111.7253,248.3894,0,U,69356,999,203,.61915E-3,.123461E-2,0
STARLINK-37598,2026-123E,2026-06-17T04:02:51.836064,15.80923726,.0000761,53.1585,241.8590,60.9471,299.1628,0,U,69357,999,203,.83918E-3,.168595E-2,0
